{"type":"Feature","geometry":{"type":"Polygon","coordinates":[[[123.88018692100002,10.293269044000056],[123.88014373300007,10.293413316000056],[123.87968286300008,10.294839650000029],[123.87914718700006,10.294567653000058],[123.87877989100002,10.294272549000027],[123.87801701100011,10.293717998000034],[123.8779590040001,10.293679455000074],[123.87759077500004,10.293434884000021],[123.8775257750001,10.293391719000056],[123.87714604500002,10.293189702000063],[123.87692582900002,10.293086807000066],[123.87671041700003,10.292948624000076],[123.87631914700012,10.292931818000056],[123.87616823400003,10.292933506000054],[123.8752845780001,10.292807155000048],[123.8751793350001,10.292800064000062],[123.87497350700005,10.292787029000067],[123.87476529900005,10.292740915000024],[123.8745624070001,10.29277187200006],[123.87439831900008,10.292796131000046],[123.87439970900004,10.292483483000069],[123.87440125800003,10.292175931000031],[123.87440180700003,10.291931269000031],[123.87435995900012,10.291875471000026],[123.87430365600005,10.291648390000034],[123.87429258400005,10.291603913000074],[123.87426969600006,10.291230969000026],[123.87426870100012,10.291212233000067],[123.8742621990001,10.290916544000027],[123.87425914700009,10.290796670000077],[123.87426616400012,10.290626506000024],[123.87427726700002,10.290358839000021],[123.87428780700009,10.290108841000063],[123.87417598900004,10.290085661000035],[123.87419724800009,10.289638911000054],[123.8742014930001,10.289549118000025],[123.87434899300001,10.289041208000071],[123.87440308100008,10.288856589000034],[123.87441493500012,10.288810787000045],[123.87449152900001,10.288543349000065],[123.87467397000012,10.28793988700005],[123.8747067160001,10.287865039000053],[123.8747067160001,10.287771479000071],[123.87466461500003,10.287579682000057],[123.87464507100003,10.287418282000033],[123.87464122500012,10.287392562000036],[123.87472542800003,10.287182052000048],[123.87474083500001,10.287151985000037],[123.87480808700002,10.287019929000053],[123.87484705600002,10.286943474000054],[123.87491546500007,10.286812558000065],[123.87497298400001,10.286699946000056],[123.87511838000012,10.286414860000036],[123.87521585800005,10.28624353300006],[123.87531709300004,10.286100084000054],[123.87563291700008,10.285852147000071],[123.87616382500005,10.285256881000066],[123.87715005200005,10.28416164400005],[123.8778086320001,10.285038156000041],[123.87922245300001,10.283545030000028],[123.8798552070001,10.282831487000067],[123.88217057600002,10.280340532000025],[123.88233010200008,10.280209060000061],[123.88247314700004,10.280406826000046],[123.88284494700008,10.280868909000048],[123.88319484700003,10.281245375000026],[123.883286827,10.281351186000052],[123.88410460800003,10.282219790000056],[123.88498250700002,10.283141766000028],[123.88755898200009,10.285861896000029],[123.8875097990001,10.286221341000044],[123.8872919910001,10.287564111000052],[123.88726388900011,10.287598672000058],[123.88724047100004,10.287621713000021],[123.88723110300009,10.287628625000025],[123.88720704500008,10.28765321800006],[123.88720139300005,10.287664340000049],[123.88717501700012,10.287697708000053],[123.88710154000012,10.287760731000049],[123.88707704800004,10.28777741500005],[123.8870356000001,10.287801511000055],[123.88702618100001,10.287805219000063],[123.88697908000006,10.28783117100005],[123.8869093720001,10.287855266000065],[123.88684154900011,10.287884924000025],[123.88683212900003,10.287890486000038],[123.88678126100001,10.287905314000056],[123.8867454660001,10.287912728000038],[123.88672097400001,10.287921996000023],[123.88670967000007,10.287923850000027],[123.88665315100002,10.287942385000065],[123.88657025500004,10.287972043000025],[123.88655706700001,10.287975750000044],[123.8865514150001,10.287975750000044],[123.88651979000008,10.287985019000075],[123.88651413800005,10.287990578000063],[123.88650095000003,10.288018384000054],[123.88648587700004,10.288044335000052],[123.8864595020001,10.288079555000024],[123.88641616900009,10.288122189000035],[123.88637472200003,10.288146285000039],[123.88636530100007,10.288153700000066],[123.88634457700005,10.288164821000066],[123.8863332740001,10.288168530000064],[123.88631254900008,10.288179651000064],[123.88628240600008,10.288190773000053],[123.88625226200008,10.28820004000005],[123.88623342200003,10.288203747000068],[123.88620139500006,10.288203746000022],[123.88619197500009,10.288205601000072],[123.88616428400007,10.28820477100004],[123.88584103300002,10.288403453000058],[123.88504669100007,10.288906246000067],[123.88540903000012,10.28930643700005],[123.88536567200003,10.289332665000074],[123.88528653000003,10.28944411200007],[123.8852201520001,10.28952769500006],[123.88518255500003,10.28957504300007],[123.88502565900001,10.289714077000042],[123.88492932600002,10.289785083000027],[123.88481887900002,10.28985231200005],[123.88466041000004,10.289924343000052],[123.88453555600006,10.289962759000048],[123.8843818900001,10.289996374000054],[123.88420421400008,10.290001176000033],[123.88406015100009,10.290001176000033],[123.88396146000002,10.290001239000048],[123.88393049500007,10.290001176000033],[123.88380084000005,10.28995795700007],[123.88370479800005,10.289943551000022],[123.8835367260001,10.289933947000065],[123.88335904900009,10.289986770000041],[123.88322459100004,10.290068405000056],[123.88314775800006,10.290140436000058],[123.88308411900005,10.29021362100002],[123.88305171600007,10.290250884000045],[123.88295087300003,10.29035172700003],[123.88284042500004,10.290447768000035],[123.88273478000008,10.290539008000053],[123.88262433200009,10.290611039000055],[123.88245626000003,10.290697476000048],[123.8822737810001,10.290735893000033],[123.88212971900009,10.290750299000024],[123.88195204200008,10.290764705000072],[123.88182779200008,10.290767265000056],[123.8817311470001,10.290764705000072],[123.88157748100002,10.290774309000028],[123.88144782500001,10.290774309000028],[123.88130376300012,10.290779111000063],[123.88121252300004,10.290822330000026],[123.88113088800003,10.290884757000072],[123.88106846100004,10.290961590000052],[123.88102524200008,10.291076840000073],[123.8809820240001,10.291220902000077],[123.88095801300005,10.291331350000064],[123.88090519100001,10.291480214000046],[123.88088120800012,10.291571256000054],[123.88084678100006,10.291653685000028],[123.88080109500004,10.29166381300007],[123.88078420200009,10.291673582000044],[123.88076808700009,10.291685972000039],[123.88071884700003,10.291738707000036],[123.88066515000003,10.291764061000038],[123.88063114500005,10.29178840700007],[123.88056854600006,10.291825363000044],[123.8804838960001,10.29184387500004],[123.88039430700007,10.291876022000054],[123.88032994700006,10.291896500000064],[123.88027826300004,10.291938432000052],[123.88022670600003,10.291969753000046],[123.88016111800005,10.292046841000058],[123.88012692500001,10.29213549700006],[123.880069391,10.292263276000028],[123.8800132660001,10.29243180800006],[123.88002464700003,10.292583786000023],[123.88007602400012,10.292744370000037],[123.88018985200006,10.29295410100002],[123.88019538000003,10.29306288500004],[123.88018692100002,10.293269044000056]]]},"properties":{"brgy_name":"Mambaling","city_name":"Cebu City","brgy_code":"072217049","psgc_10d":"0730600049"}}
